{"type": "FeatureCollection", "features": [ {"type": "Feature", "properties": {"norad_id": 33905, "name": "COSMOS 2251 DEB", "group": "cosmos-2251-debris", "lat": -36.78400815220075, "lon": -83.88370147629901, "alt_km": 814.2125452480213, "timestamp": "2025-12-27T21:25:02.909653+00:00", "meta": {"OBJECT_NAME": "COSMOS 2251 DEB", "OBJECT_ID": "1993-036DJ", "EPOCH": "2025-12-27T05:25:55.197120", "MEAN_MOTION": 14.35434356, "ECCENTRICITY": 0.0058014, "INCLINATION": 73.8868, "RA_OF_ASC_NODE": 289.8303, "ARG_OF_PERICENTER": 176.1873, "MEAN_ANOMALY": 304.4335, "EPHEMERIS_TYPE": 0, "CLASSIFICATION_TYPE": "U", "NORAD_CAT_ID": 33905, "ELEMENT_SET_NO": 999, "REV_AT_EPOCH": 87895, "BSTAR": 0.0006153, "MEAN_MOTION_DOT": 1.775e-05, "MEAN_MOTION_DDOT": 0}, "tle": {"line1": "1 33905U 93036DJ  25361.22633330  .00001775  00000+0  61530-3 0  9997", "line2": "2 33905  73.8868 289.8303 0058014 176.1873 304.4335 14.35434356878953"}}, "geometry": {"type": "Point", "coordinates": [-83.88370147629901, -36.78400815220075]}}, {"type": "Feature", "properties": {"norad_id": 33906, "name": "COSMOS 2251 DEB", "group": "cosmos-2251-debris", "lat": -43.932423948306926, "lon": -83.33894280974877, "alt_km": 682.0824697096268, "timestamp": "2025-12-27T21:25:02.909664+00:00", "meta": {"OBJECT_NAME": "COSMOS 2251 DEB", "OBJECT_ID": "1993-036DK", "EPOCH": "2025-12-27T04:01:22.560672", "MEAN_MOTION": 14.57333869, "ECCENTRICITY": 0.00369198, "INCLINATION": 74.0299, "RA_OF_ASC_NODE": 294.0533, "ARG_OF_PERICENTER": 321.421, "MEAN_ANOMALY": 151.606, "EPHEMERIS_TYPE": 0, "CLASSIFICATION_TYPE": "U", "NORAD_CAT_ID": 33906, "ELEMENT_SET_NO": 999, "REV_AT_EPOCH": 88218, "BSTAR": 0.0022406267, "MEAN_MOTION_DOT": 0.00010228, "MEAN_MOTION_DDOT": 0}, "tle": {"line1": "1 33906U 93036DK  25361.16762223  .00010228  00000+0  22406-2 0  9996", "line2": "2 33906  74.0299 294.0533 0036919 321.4210 151.6060 14.57333869882186"}}, "geometry": {"type": "Point", "coordinates": [-83.33894280974877, -43.932423948306926]}}, {"type": "Feature", "properties": {"norad_id": 33907, "name": "COSMOS 2251 DEB", "group": "cosmos-2251-debris", "lat": -73.62431491802909, "lon": -70.25414593559188, "alt_km": 860.5488967263182, "timestamp": "2025-12-27T21:25:02.909675+00:00", "meta": {"OBJECT_NAME": "COSMOS 2251 DEB", "OBJECT_ID": "1993-036DL", "EPOCH": "2025-12-27T10:37:22.476000", "MEAN_MOTION": 14.30649677, "ECCENTRICITY": 0.0112004, "INCLINATION": 74.0707, "RA_OF_ASC_NODE": 6.9448, "ARG_OF_PERICENTER": 58.0361, "MEAN_ANOMALY": 60.9892, "EPHEMERIS_TYPE": 0, "CLASSIFICATION_TYPE": "U", "NORAD_CAT_ID": 33907, "ELEMENT_SET_NO": 999, "REV_AT_EPOCH": 86790, "BSTAR": 0.0023688, "MEAN_MOTION_DOT": 6.609e-05, "MEAN_MOTION_DDOT": 0}, "tle": {"line1": "1 33907U 93036DL  25361.44262125  .00006609  00000+0  23688-2 0  9995", "line2": "2 33907  74.0707   6.9448 0112004  58.0361  60.9892 14.30649677867902"}}, "geometry": {"type": "Point", "coordinates": [-70.25414593559188, -73.62431491802909]}}, {"type": "Feature", "properties": {"norad_id": 33908, "name": "COSMOS 2251 DEB", "group": "cosmos-2251-debris", "lat": 56.70472880850567, "lon": -27.327551168182055, "alt_km": 831.3198055465609, "timestamp": "2025-12-27T21:25:02.909685+00:00", "meta": {"OBJECT_NAME": "COSMOS 2251 DEB", "OBJECT_ID": "1993-036DM", "EPOCH": "2025-12-27T12:18:24.128928", "MEAN_MOTION": 14.07474994, "ECCENTRICITY": 0.022202, "INCLINATION": 73.8373, "RA_OF_ASC_NODE": 179.5499, "ARG_OF_PERICENTER": 200.3841, "MEAN_ANOMALY": 158.8333, "EPHEMERIS_TYPE": 0, "CLASSIFICATION_TYPE": "U", "NORAD_CAT_ID": 33908, "ELEMENT_SET_NO": 999, "REV_AT_EPOCH": 85681, "BSTAR": 0.0032502, "MEAN_MOTION_DOT": 6.835e-05, "MEAN_MOTION_DDOT": 0}, "tle": {"line1": "1 33908U 93036DM  25361.51277927  .00006835  00000+0  32502-2 0  9996", "line2": "2 33908  73.8373 179.5499 0222020 200.3841 158.8333 14.07474994856814"}}, "geometry": {"type": "Point", "coordinates": [-27.327551168182055, 56.70472880850567]}}, {"type": "Feature", "properties": {"norad_id": 33911, "name": "COSMOS 2251 DEB", "group": "cosmos-2251-debris", "lat": -22.591207494223223, "lon": 125.52382695604032, "alt_km": 648.5993679482744, "timestamp": "2025-12-27T21:25:02.909696+00:00", "meta": {"OBJECT_NAME": "COSMOS 2251 DEB", "OBJECT_ID": "1993-036DQ", "EPOCH": "2025-12-27T10:24:57.542112", "MEAN_MOTION": 14.7524494, "ECCENTRICITY": 0.0014078, "INCLINATION": 74.0901, "RA_OF_ASC_NODE": 133.2326, "ARG_OF_PERICENTER": 63.0261, "MEAN_ANOMALY": 0.2239, "EPHEMERIS_TYPE": 0, "CLASSIFICATION_TYPE": "U", "NORAD_CAT_ID": 33911, "ELEMENT_SET_NO": 999, "REV_AT_EPOCH": 88861, "BSTAR": 0.0023969, "MEAN_MOTION_DOT": 0.00016251, "MEAN_MOTION_DDOT": 0}, "tle": {"line1": "1 33911U 93036DQ  25361.43399933  .00016251  00000+0  23969-2 0  9993", "line2": "2 33911  74.0901 133.2326 0014078  63.0261   0.2239 14.75244940888615"}}, "geometry": {"type": "Point", "coordinates": [125.52382695604032, -22.591207494223223]}}, {"type": "Feature", "properties": {"norad_id": 33912, "name": "COSMOS 2251 DEB", "group": "cosmos-2251-debris", "lat": 42.332823044106526, "lon": 176.29811607171277, "alt_km": 723.0391633033587, "timestamp": "2025-12-27T21:25:02.909707+00:00", "meta": {"OBJECT_NAME": "COSMOS 2251 DEB", "OBJECT_ID": "1993-036DR", "EPOCH": "2025-12-27T11:35:13.214112", "MEAN_MOTION": 14.5198427, "ECCENTRICITY": 0.001127, "INCLINATION": 74.0335, "RA_OF_ASC_NODE": 161.9512, "ARG_OF_PERICENTER": 241.4777, "MEAN_ANOMALY": 182.848, "EPHEMERIS_TYPE": 0, "CLASSIFICATION_TYPE": "U", "NORAD_CAT_ID": 33912, "ELEMENT_SET_NO": 999, "REV_AT_EPOCH": 88647, "BSTAR": 0.00098108, "MEAN_MOTION_DOT": 3.94e-05, "MEAN_MOTION_DDOT": 0}, "tle": {"line1": "1 33912U 93036DR  25361.48279183  .00003940  00000+0  98108-3 0  9992", "line2": "2 33912  74.0335 161.9512 0011270 241.4777 182.8480 14.51984270886475"}}, "geometry": {"type": "Point", "coordinates": [176.29811607171277, 42.332823044106526]}}, {"type": "Feature", "properties": {"norad_id": 33913, "name": "COSMOS 2251 DEB", "group": "cosmos-2251-debris", "lat": -52.74697714410404, "lon": 133.13978102221645, "alt_km": 714.5466929800277, "timestamp": "2025-12-27T21:25:02.909718+00:00", "meta": {"OBJECT_NAME": "COSMOS 2251 DEB", "OBJECT_ID": "1993-036DS", "EPOCH": "2025-12-26T21:30:57.165408", "MEAN_MOTION": 14.48546591, "ECCENTRICITY": 0.0048159, "INCLINATION": 74.0331, "RA_OF_ASC_NODE": 157.1205, "ARG_OF_PERICENTER": 257.0733, "MEAN_ANOMALY": 255.4073, "EPHEMERIS_TYPE": 0, "CLASSIFICATION_TYPE": "U", "NORAD_CAT_ID": 33913, "ELEMENT_SET_NO": 999, "REV_AT_EPOCH": 88662, "BSTAR": 0.00077683, "MEAN_MOTION_DOT": 2.934e-05, "MEAN_MOTION_DDOT": 0}, "tle": {"line1": "1 33913U 93036DS  25360.89649497  .00002934  00000+0  77683-3 0  9993", "line2": "2 33913  74.0331 157.1205 0048159 257.0733 255.4073 14.48546591886627"}}, "geometry": {"type": "Point", "coordinates": [133.13978102221645, -52.74697714410404]}}, {"type": "Feature", "properties": {"norad_id": 33914, "name": "COSMOS 2251 DEB", "group": "cosmos-2251-debris", "lat": 54.11605879511318, "lon": 13.340130778334583, "alt_km": 797.1605865045576, "timestamp": "2025-12-27T21:25:02.909729+00:00", "meta": {"OBJECT_NAME": "COSMOS 2251 DEB", "OBJECT_ID": "1993-036DT", "EPOCH": "2025-12-27T05:28:33.697056", "MEAN_MOTION": 13.71994013, "ECCENTRICITY": 0.030077, "INCLINATION": 74.0912, "RA_OF_ASC_NODE": 351.2172, "ARG_OF_PERICENTER": 90.753, "MEAN_ANOMALY": 289.0161, "EPHEMERIS_TYPE": 0, "CLASSIFICATION_TYPE": "U", "NORAD_CAT_ID": 33914, "ELEMENT_SET_NO": 999, "REV_AT_EPOCH": 84280, "BSTAR": 0.00032751, "MEAN_MOTION_DOT": 3.91e-06, "MEAN_MOTION_DDOT": 0}, "tle": {"line1": "1 33914U 93036DT  25361.22816779  .00000391  00000+0  32751-3 0  9993", "line2": "2 33914  74.0912 351.2172 0300770  90.7530 289.0161 13.71994013842804"}}, "geometry": {"type": "Point", "coordinates": [13.340130778334583, 54.11605879511318]}}, {"type": "Feature", "properties": {"norad_id": 33915, "name": "COSMOS 2251 DEB", "group": "cosmos-2251-debris", "lat": 18.375578322204756, "lon": 11.789992067020197, "alt_km": 755.3250151983902, "timestamp": "2025-12-27T21:25:02.909740+00:00", "meta": {"OBJECT_NAME": "COSMOS 2251 DEB", "OBJECT_ID": "1993-036DU", "EPOCH": "2025-12-27T11:52:15.436704", "MEAN_MOTION": 14.35115266, "ECCENTRICITY": 0.0103953, "INCLINATION": 74.043, "RA_OF_ASC_NODE": 7.0649, "ARG_OF_PERICENTER": 95.605, "MEAN_ANOMALY": 30.5648, "EPHEMERIS_TYPE": 0, "CLASSIFICATION_TYPE": "U", "NORAD_CAT_ID": 33915, "ELEMENT_SET_NO": 999, "REV_AT_EPOCH": 87969, "BSTAR": 0.00039929, "MEAN_MOTION_DOT": 1.186e-05, "MEAN_MOTION_DDOT": 0}, "tle": {"line1": "1 33915U 93036DU  25361.49462311  .00001186  00000+0  39929-3 0  9999", "line2": "2 33915  74.0430   7.0649 0103953  95.6050  30.5648 14.35115266879692"}}, "geometry": {"type": "Point", "coordinates": [11.789992067020197, 18.375578322204756]}}, {"type": "Feature", "properties": {"norad_id": 33916, "name": "COSMOS 2251 DEB", "group": "cosmos-2251-debris", "lat": 38.99418787205305, "lon": -177.6946591361006, "alt_km": 829.3508368221892, "timestamp": "2025-12-27T21:25:02.909750+00:00", "meta": {"OBJECT_NAME": "COSMOS 2251 DEB", "OBJECT_ID": "1993-036DV", "EPOCH": "2025-12-27T12:35:33.108000", "MEAN_MOTION": 13.68628231, "ECCENTRICITY": 0.0324638, "INCLINATION": 74.0518, "RA_OF_ASC_NODE": 16.2948, "ARG_OF_PERICENTER": 185.2574, "MEAN_ANOMALY": 305.3691, "EPHEMERIS_TYPE": 0, "CLASSIFICATION_TYPE": "U", "NORAD_CAT_ID": 33916, "ELEMENT_SET_NO": 999, "REV_AT_EPOCH": 84093, "BSTAR": 0.00032473, "MEAN_MOTION_DOT": 3.81e-06, "MEAN_MOTION_DDOT": 0}, "tle": {"line1": "1 33916U 93036DV  25361.52468875  .00000381  00000+0  32473-3 0  9998", "line2": "2 33916  74.0518  16.2948 0324638 185.2574 305.3691 13.68628231840938"}}, "geometry": {"type": "Point", "coordinates": [-177.6946591361006, 38.99418787205305]}}]}